{
  "norad_id": 57144,
  "name": "STARLINK-5150",
  "history": [
    {
      "epoch": "2026-03-28T21:04:37.439040",
      "apogee_km": 486.7428009840187,
      "perigee_km": 484.38443345194264,
      "latitude_deg": 21.146146399818807,
      "longitude_deg": -21.291734400205314,
      "semi_major_axis_km": 6863.700617217981,
      "eccentricity": 0.0001718,
      "inclination_deg": 43.0034,
      "raan_deg": 154.4941,
      "arg_perigee_deg": 288.6744,
      "mean_anomaly_deg": 71.3921,
      "mean_motion_rev_day": 15.26740632
    }
  ]
}