{"fetched_at":"2026-03-29T16:36:15Z","count":15609,"tles":[{"name":"STARLINK-5150","line1":"1 57144U 23090AV  26087.87821110 -.00001280  00000+0 -38047-4 0  9994","line2":"2 57144  43.0034 154.4941 0001718 288.6744  71.3921 15.26740632153290","category":"Starlink"}]}